[{"OBJECT_NAME":"BB 2","OBJECT_ID":"2023-050J","EPOCH":"2026-03-09T22:07:12.923904","MEAN_MOTION":13.82406708,"ECCENTRICITY":0.00102033,"INCLINATION":81.0051,"RA_OF_ASC_NODE":175.6256,"ARG_OF_PERICENTER":200.1323,"MEAN_ANOMALY":159.9431,"EPHEMERIS_TYPE":0,"CLASSIFICATION_TYPE":"U","NORAD_CAT_ID":56170,"ELEMENT_SET_NO":999,"REV_AT_EPOCH":14781,"BSTAR":0.00021631056,"MEAN_MOTION_DOT":2.45e-6,"MEAN_MOTION_DDOT":0},{"OBJECT_NAME":"FENGYUN 1C DEB","OBJECT_ID":"1999-025GJ","EPOCH":"2026-03-09T11:57:19.105056","MEAN_MOTION":14.20212821,"ECCENTRICITY":0.02740646,"INCLINATION":99.1923,"RA_OF_ASC_NODE":269.6906,"ARG_OF_PERICENTER":138.4279,"MEAN_ANOMALY":223.8094,"EPHEMERIS_TYPE":0,"CLASSIFICATION_TYPE":"U","NORAD_CAT_ID":29888,"ELEMENT_SET_NO":999,"REV_AT_EPOCH":98735,"BSTAR":0.00061902764,"MEAN_MOTION_DOT":1.877e-5,"MEAN_MOTION_DDOT":0}]
